ONEWEB-0572             
1 55151U 23004M   26185.45311591  .00000542  00000+0  13623-2 0  9994
2 55151  87.9135   2.4299 0002046  92.0621 268.0745 13.17648353169751
ONEWEB-0573             
1 55152U 23004N   26185.64243756  .00000129  00000+0  29568-3 0  9990
2 55152  87.9178 331.9962 0002680 104.0566 256.0865 13.18688182171996
ONEWEB-0588             
1 55153U 23004P   26185.63570579  .00000070  00000+0  14540-3 0  9995
2 55153  87.9176 331.9975 0002309  88.8464 271.2932 13.18686652171997
ONEWEB-0598             
1 55154U 23004Q   26185.47962100 -.00000452  00000+0 -13110-2 0  9990
2 55154  87.8878  17.6251 0002284 104.9797 255.1584 13.11415627168166
ONEWEB-0599             
1 55155U 23004R   26185.49022596  .00000015  00000+0  45991-5 0  9997
2 55155  87.9137   2.4211 0001731  97.0693 263.0636 13.17649895169762
ONEWEB-0614             
1 55156U 23004S   26185.47453337 -.00000296  00000+0 -86965-3 0  9994
2 55156  87.8875  17.6347 0001873  81.5709 278.5631 13.11414472168100
ONEWEB-0616             
1 55157U 23004T   26185.45647754  .00000068  00000+0  14251-3 0  9995
2 55157  87.9137   2.4319 0001263 117.9834 242.1426 13.17650118169970
ONEWEB-0617             
1 55158U 23004U   26185.53897253  .00000176  00000+0  45971-3 0  9999
2 55158  87.8881  17.6139 0002110  79.2867 280.8498 13.11415440168138
ONEWEB-0618             
1 55159U 23004V   26185.38474393  .00009782  00000+0  54711-3 0  9993
2 55159  86.9090 170.6521 0010323 218.4000 141.6506 15.13305931184866
ONEWEB-0619             
1 55160U 23004W   26185.48854056  .00000051  00000+0  97529-4 0  9999
2 55160  87.9145   2.4075 0001589  79.4353 280.6958 13.17650313169874
ONEWEB-0620             
1 55161U 23004X   26185.53388619  .00000328  00000+0  88970-3 0  9999
2 55161  87.8873  17.6223 0002083  92.3138 267.8228 13.11414731168108
ONEWEB-0621             
1 55162U 23004Y   26185.48470509 -.00000478  00000+0 -13849-2 0  9994
2 55162  87.8887  17.6229 0001859  81.3150 278.8188 13.11416278168073
ONEWEB-0622             
1 55163U 23004Z   26185.26090586 -.00000553  00000+0 -15976-2 0  9991
2 55163  87.8889  17.6700 0002457  77.8906 282.2497 13.11416521168033
ONEWEB-0623             
1 55164U 23004AA  26185.25565635 -.00000067  00000+0 -20564-3 0  9993
2 55164  87.9135   2.4822 0002054  68.1918 291.9432 13.17647653169838
ONEWEB-0624             
1 55165U 23004AB  26185.41812319 -.00000002  00000+0 -40883-4 0  9992
2 55165  87.8956 347.1554 0001790  89.0613 271.0721 13.12929465170336
ONEWEB-0625             
1 55166U 23004AC  26185.47335231  .00000035  00000+0  56742-4 0  9997
2 55166  87.9138   2.4349 0001680  93.3866 266.7458 13.17649888169855
ONEWEB-0626             
1 55167U 23004AD  26185.46323589 -.00000830  00000+0 -21705-2 0  9994
2 55167  87.9137   2.4369 0002043  99.9056 260.2306 13.17635015169852
ONEWEB-0627             
1 55168U 23004AE  26185.45140896  .00000066  00000+0  13563-3 0  9995
2 55168  87.9135   2.4393 0001952  76.3513 283.7836 13.17648145169859
ONEWEB-0628             
1 55169U 23004AF  26185.40591123 -.00000299  00000+0 -86681-3 0  9995
2 55169  87.8962 347.2290 0001832  72.5187 287.6141 13.12443345170297
ONEWEB-0629             
1 55170U 23004AG  26185.50288505  .00000015  00000+0  46516-5 0  9994
2 55170  87.9136   2.4248 0001632  83.1636 276.9681 13.17649310169867
ONEWEB-0631             
1 55171U 23004AH  26185.17370327  .00000025  00000+0  31875-4 0  9994
2 55171  87.9186 332.0570 0002363  94.9677 265.1725 13.18685784171914
ONEWEB-0709             
1 55172U 23004AJ  26185.29482736  .00000604  00000+0  16695-2 0  9990
2 55172  87.8875  17.6722 0002428 106.4688 253.6707 13.11415629168119
ONEWEB-0710             
1 55173U 23004AK  26185.21347118 -.00000170  00000+0 -47134-3 0  9990
2 55173  87.9135   2.4779 0001985  86.6571 273.4788 13.17648389169826
ONEWEB-0711             
1 55174U 23004AL  26185.49488300 -.00000368  00000+0 -10729-2 0  9998
2 55174  87.8881  17.6206 0002248  71.9573 288.1800 13.11417264168107
ONEWEB-0713             
1 55175U 23004AM  26185.51354541  .00000318  00000+0  86149-3 0  9994
2 55175  87.8885  17.6185 0002041  78.3784 281.7573 13.11416853168091
ONEWEB-0715             
1 55176U 23004AN  26185.50845400  .00000175  00000+0  45681-3 0  9990
2 55176  87.8882  17.6200 0002453  97.0748 263.0659 13.11416907168135
ONEWEB-0716             
1 55177U 23004AP  26185.20671993 -.00000155  00000+0 -43178-3 0  9991
2 55177  87.9134   2.4821 0001698  94.8296 265.3029 13.17648388169820
ONEWEB-0717             
1 55178U 23004AQ  26185.49360488  .00000036  00000+0  59286-4 0  9991
2 55178  87.9146   2.4141 0002298  80.4357 279.7035 13.17649607169916
ONEWEB-0719             
1 55179U 23004AR  26185.42779120  .00000021  00000+0  20733-4 0  9991
2 55179  87.9145   2.4074 0001665  89.9284 270.2038 13.17650494169859
ONEWEB-0530             
1 55796U 23029A   26185.51399387  .00000001  00000+0 -30016-4 0  9990
2 55796  87.9185 271.0151 0002012  86.2265 273.9098 13.20772335163431
