OBJECT_NAME,OBJECT_ID,EPOCH,MEAN_MOTION,ECCENTRICITY,INCLINATION,RA_OF_ASC_NODE,ARG_OF_PERICENTER,MEAN_ANOMALY,EPHEMERIS_TYPE,CLASSIFICATION_TYPE,NORAD_CAT_ID,ELEMENT_SET_NO,REV_AT_EPOCH,BSTAR,MEAN_MOTION_DOT,MEAN_MOTION_DDOT
ONEWEB-0572,2023-004M,2026-07-04T10:52:29.214624,13.17648353,.00020467,87.9135,2.4299,92.0621,268.0745,0,U,55151,999,16975,.13622637E-2,.542E-5,0
ONEWEB-0573,2023-004N,2026-07-04T15:25:06.605184,13.18688182,.00026809,87.9178,331.9962,104.0566,256.0865,0,U,55152,999,17199,.2956849E-3,.129E-5,0
ONEWEB-0588,2023-004P,2026-07-04T15:15:24.980256,13.18686652,.00023092,87.9176,331.9975,88.8464,271.2932,0,U,55153,999,17199,.14540079E-3,.7E-6,0
ONEWEB-0598,2023-004Q,2026-07-04T11:30:39.254400,13.11415627,.00022845,87.8878,17.6251,104.9797,255.1584,0,U,55154,999,16816,-.13110205E-2,-.452E-5,0
ONEWEB-0599,2023-004R,2026-07-04T11:45:55.522944,13.17649895,.00017317,87.9137,2.4211,97.0693,263.0636,0,U,55155,999,16976,.4599129E-5,.15E-6,0
ONEWEB-0614,2023-004S,2026-07-04T11:23:19.683168,13.11414472,.00018739,87.8875,17.6347,81.5709,278.5631,0,U,55156,999,16810,-.8696465E-3,-.296E-5,0
ONEWEB-0616,2023-004T,2026-07-04T10:57:19.659456,13.17650118,.0001263,87.9137,2.4319,117.9834,242.1426,0,U,55157,999,16997,.1425109E-3,.68E-6,0
ONEWEB-0617,2023-004U,2026-07-04T12:56:07.226592,13.11415440,.00021102,87.8881,17.6139,79.2867,280.8498,0,U,55158,999,16813,.45970967E-3,.176E-5,0
ONEWEB-0618,2023-004V,2026-07-04T09:14:01.875552,15.13305931,.00103236,86.9090,170.6521,218.4000,141.6506,0,U,55159,999,18486,.54710524E-3,.9782E-4,0
ONEWEB-0619,2023-004W,2026-07-04T11:43:29.904384,13.17650313,.0001589,87.9145,2.4075,79.4353,280.6958,0,U,55160,999,16987,.97529053E-4,.51E-6,0
ONEWEB-0620,2023-004X,2026-07-04T12:48:47.766816,13.11414731,.00020839,87.8873,17.6223,92.3138,267.8228,0,U,55161,999,16810,.88970474E-3,.328E-5,0
ONEWEB-0621,2023-004Y,2026-07-04T11:37:58.519776,13.11416278,.00018592,87.8887,17.6229,81.3150,278.8188,0,U,55162,999,16807,-.13848791E-2,-.478E-5,0
ONEWEB-0622,2023-004Z,2026-07-04T06:15:42.266304,13.11416521,.00024577,87.8889,17.6700,77.8906,282.2497,0,U,55163,999,16803,-.15975543E-2,-.553E-5,0
ONEWEB-0623,2023-004AA,2026-07-04T06:08:08.708640,13.17647653,.00020544,87.9135,2.4822,68.1918,291.9432,0,U,55164,999,16983,-.20563664E-3,-.67E-6,0
ONEWEB-0624,2023-004AB,2026-07-04T10:02:05.843616,13.12929465,.00017906,87.8956,347.1554,89.0613,271.0721,0,U,55165,999,17033,-.40882822E-4,-.2E-7,0
ONEWEB-0625,2023-004AC,2026-07-04T11:21:37.639584,13.17649888,.00016803,87.9138,2.4349,93.3866,266.7458,0,U,55166,999,16985,.56742389E-4,.35E-6,0
ONEWEB-0626,2023-004AD,2026-07-04T11:07:03.580896,13.17635015,.00020439,87.9137,2.4369,99.9056,260.2306,0,U,55167,999,16985,-.21704861E-2,-.83E-5,0
ONEWEB-0627,2023-004AE,2026-07-04T10:50:01.734144,13.17648145,.00019526,87.9135,2.4393,76.3513,283.7836,0,U,55168,999,16985,.13562678E-3,.66E-6,0
ONEWEB-0628,2023-004AF,2026-07-04T09:44:30.730272,13.12443345,.00018324,87.8962,347.2290,72.5187,287.6141,0,U,55169,999,17029,-.86680787E-3,-.299E-5,0
ONEWEB-0629,2023-004AG,2026-07-04T12:04:09.268320,13.17649310,.00016321,87.9136,2.4248,83.1636,276.9681,0,U,55170,999,16986,.4651552E-5,.15E-6,0
ONEWEB-0631,2023-004AH,2026-07-04T04:10:07.962528,13.18685784,.00023636,87.9186,332.0570,94.9677,265.1725,0,U,55171,999,17191,.31874688E-4,.25E-6,0
ONEWEB-0709,2023-004AJ,2026-07-04T07:04:33.083904,13.11415629,.00024282,87.8875,17.6722,106.4688,253.6707,0,U,55172,999,16811,.16695018E-2,.604E-5,0
ONEWEB-0710,2023-004AK,2026-07-04T05:07:23.909952,13.17648389,.00019859,87.9135,2.4779,86.6571,273.4788,0,U,55173,999,16982,-.4713369E-3,-.17E-5,0
ONEWEB-0711,2023-004AL,2026-07-04T11:52:37.891200,13.11417264,.00022483,87.8881,17.6206,71.9573,288.1800,0,U,55174,999,16810,-.10728776E-2,-.368E-5,0
ONEWEB-0713,2023-004AM,2026-07-04T12:19:30.323424,13.11416853,.00020414,87.8885,17.6185,78.3784,281.7573,0,U,55175,999,16809,.86149279E-3,.318E-5,0
ONEWEB-0715,2023-004AN,2026-07-04T12:12:10.425600,13.11416907,.00024536,87.8882,17.6200,97.0748,263.0659,0,U,55176,999,16813,.45680667E-3,.175E-5,0
ONEWEB-0716,2023-004AP,2026-07-04T04:57:40.601952,13.17648388,.00016988,87.9134,2.4821,94.8296,265.3029,0,U,55177,999,16982,-.43177599E-3,-.155E-5,0
ONEWEB-0717,2023-004AQ,2026-07-04T11:50:47.461632,13.17649607,.00022988,87.9146,2.4141,80.4357,279.7035,0,U,55178,999,16991,.59286056E-4,.36E-6,0
ONEWEB-0719,2023-004AR,2026-07-04T10:16:01.159680,13.17650494,.0001665,87.9145,2.4074,89.9284,270.2038,0,U,55179,999,16985,.20732808E-4,.21E-6,0
ONEWEB-0530,2023-029A,2026-07-04T12:20:09.070368,13.20772335,.00020123,87.9185,271.0151,86.2265,273.9098,0,U,55796,999,16343,-.3001585E-4,.1E-7,0
